[
  {
    "OBJECT_NAME": "STARLINK-34399",
    "OBJECT_ID": "25130G",
    "EPOCH": "2025-11-11T07:01:09.871104",
    "MEAN_MOTION": 15.30224305,
    "ECCENTRICITY": 0.0001176,
    "INCLINATION": 53.1619,
    "RA_OF_ASC_NODE": 278.6411,
    "ARG_OF_PERICENTER": 98.913,
    "MEAN_ANOMALY": 261.2004,
    "EPHEMERIS_TYPE": 0,
    "CLASSIFICATION_TYPE": "U",
    "NORAD_CAT_ID": 64444,
    "ELEMENT_SET_NO": 999,
    "REV_AT_EPOCH": 2257,
    "BSTAR": 0.00099454,
    "MEAN_MOTION_DOT": 0.00029234,
    "MEAN_MOTION_DDOT": 0.0,
    "TLE_LINE1": "1 64444U 25130G   25315.29247536  .00029234  00000+0  99454-3 0  9990",
    "TLE_LINE2": "2 64444  53.1619 278.6411 0001176  98.9130 261.2004 15.30224305 22579",
    "COMMENT": "Grouped by shell and plane from TLE"
  },
  {
    "OBJECT_NAME": "STARLINK-34398",
    "OBJECT_ID": "25130H",
    "EPOCH": "2025-11-11T04:05:13.169184",
    "MEAN_MOTION": 15.30208745,
    "ECCENTRICITY": 0.0001231,
    "INCLINATION": 53.1618,
    "RA_OF_ASC_NODE": 279.304,
    "ARG_OF_PERICENTER": 94.9644,
    "MEAN_ANOMALY": 265.1497,
    "EPHEMERIS_TYPE": 0,
    "CLASSIFICATION_TYPE": "U",
    "NORAD_CAT_ID": 64445,
    "ELEMENT_SET_NO": 999,
    "REV_AT_EPOCH": 2255,
    "BSTAR": 0.0011874,
    "MEAN_MOTION_DOT": 0.00034984,
    "MEAN_MOTION_DDOT": 0.0,
    "TLE_LINE1": "1 64445U 25130H   25315.17029131  .00034984  00000+0  11874-2 0  9994",
    "TLE_LINE2": "2 64445  53.1618 279.3040 0001231  94.9644 265.1497 15.30208745 22550",
    "COMMENT": "Grouped by shell and plane from TLE"
  },
  {
    "OBJECT_NAME": "STARLINK-34402",
    "OBJECT_ID": "25130J",
    "EPOCH": "2025-11-11T04:23:17.191968",
    "MEAN_MOTION": 15.3023764,
    "ECCENTRICITY": 0.0001379,
    "INCLINATION": 53.1598,
    "RA_OF_ASC_NODE": 278.6713,
    "ARG_OF_PERICENTER": 102.35,
    "MEAN_ANOMALY": 257.7656,
    "EPHEMERIS_TYPE": 0,
    "CLASSIFICATION_TYPE": "U",
    "NORAD_CAT_ID": 64446,
    "ELEMENT_SET_NO": 999,
    "REV_AT_EPOCH": 2256,
    "BSTAR": 0.0015821,
    "MEAN_MOTION_DOT": 0.00046848,
    "MEAN_MOTION_DDOT": 0.0,
    "TLE_LINE1": "1 64446U 25130J   25315.18283787  .00046848  00000+0  15821-2 0  9993",
    "TLE_LINE2": "2 64446  53.1598 278.6713 0001379 102.3500 257.7656 15.30237640 22566",
    "COMMENT": "Grouped by shell and plane from TLE"
  },
  {
    "OBJECT_NAME": "STARLINK-34450",
    "OBJECT_ID": "25130K",
    "EPOCH": "2025-11-11T07:10:17.055264",
    "MEAN_MOTION": 15.30218708,
    "ECCENTRICITY": 0.0001069,
    "INCLINATION": 53.1606,
    "RA_OF_ASC_NODE": 278.6829,
    "ARG_OF_PERICENTER": 90.378,
    "MEAN_ANOMALY": 269.7343,
    "EPHEMERIS_TYPE": 0,
    "CLASSIFICATION_TYPE": "U",
    "NORAD_CAT_ID": 64447,
    "ELEMENT_SET_NO": 999,
    "REV_AT_EPOCH": 2257,
    "BSTAR": 0.0015561,
    "MEAN_MOTION_DOT": 0.00046039,
    "MEAN_MOTION_DDOT": 0.0,
    "TLE_LINE1": "1 64447U 25130K   25315.29880851  .00046039  00000+0  15561-2 0  9994",
    "TLE_LINE2": "2 64447  53.1606 278.6829 0001069  90.3780 269.7343 15.30218708 22578",
    "COMMENT": "Grouped by shell and plane from TLE"
  },
  {
    "OBJECT_NAME": "STARLINK-34433",
    "OBJECT_ID": "25130L",
    "EPOCH": "2025-11-11T04:12:48.948192",
    "MEAN_MOTION": 15.30220518,
    "ECCENTRICITY": 0.0001267,
    "INCLINATION": 53.1606,
    "RA_OF_ASC_NODE": 279.3333,
    "ARG_OF_PERICENTER": 81.3229,
    "MEAN_ANOMALY": 278.7915,
    "EPHEMERIS_TYPE": 0,
    "CLASSIFICATION_TYPE": "U",
    "NORAD_CAT_ID": 64448,
    "ELEMENT_SET_NO": 999,
    "REV_AT_EPOCH": 2255,
    "BSTAR": 0.0011162,
    "MEAN_MOTION_DOT": 0.00032867,
    "MEAN_MOTION_DDOT": 0.0,
    "TLE_LINE1": "1 64448U 25130L   25315.17556653  .00032867  00000+0  11162-2 0  9999",
    "TLE_LINE2": "2 64448  53.1606 279.3333 0001267  81.3229 278.7915 15.30220518 22550",
    "COMMENT": "Grouped by shell and plane from TLE"
  },
  {
    "OBJECT_NAME": "STARLINK-34459",
    "OBJECT_ID": "25130M",
    "EPOCH": "2025-11-11T05:17:59.813952",
    "MEAN_MOTION": 15.30215808,
    "ECCENTRICITY": 0.0001602,
    "INCLINATION": 53.1613,
    "RA_OF_ASC_NODE": 278.9048,
    "ARG_OF_PERICENTER": 98.6908,
    "MEAN_ANOMALY": 261.4275,
    "EPHEMERIS_TYPE": 0,
    "CLASSIFICATION_TYPE": "U",
    "NORAD_CAT_ID": 64449,
    "ELEMENT_SET_NO": 999,
    "REV_AT_EPOCH": 2256,
    "BSTAR": 0.001181,
    "MEAN_MOTION_DOT": 0.000348,
    "MEAN_MOTION_DDOT": 0.0,
    "TLE_LINE1": "1 64449U 25130M   25315.22083118  .00034800  00000+0  11810-2 0  9996",
    "TLE_LINE2": "2 64449  53.1613 278.9048 0001602  98.6908 261.4275 15.30215808 22560",
    "COMMENT": "Grouped by shell and plane from TLE"
  },
  {
    "OBJECT_NAME": "STARLINK-34361",
    "OBJECT_ID": "25130N",
    "EPOCH": "2025-11-11T06:44:26.964096",
    "MEAN_MOTION": 15.30238525,
    "ECCENTRICITY": 0.0001339,
    "INCLINATION": 53.1604,
    "RA_OF_ASC_NODE": 278.5687,
    "ARG_OF_PERICENTER": 91.664,
    "MEAN_ANOMALY": 268.4514,
    "EPHEMERIS_TYPE": 0,
    "CLASSIFICATION_TYPE": "U",
    "NORAD_CAT_ID": 64450,
    "ELEMENT_SET_NO": 999,
    "REV_AT_EPOCH": 2374,
    "BSTAR": 0.0011507000000000002,
    "MEAN_MOTION_DOT": 0.00033917,
    "MEAN_MOTION_DDOT": 0.0,
    "TLE_LINE1": "1 64450U 25130N   25315.28086764  .00033917  00000+0  11507-2 0  9995",
    "TLE_LINE2": "2 64450  53.1604 278.5687 0001339  91.6640 268.4514 15.30238525 23745",
    "COMMENT": "Grouped by shell and plane from TLE"
  },
  {
    "OBJECT_NAME": "STARLINK-34392",
    "OBJECT_ID": "25130P",
    "EPOCH": "2025-11-11T04:09:46.677888",
    "MEAN_MOTION": 15.30213781,
    "ECCENTRICITY": 0.0001125,
    "INCLINATION": 53.1597,
    "RA_OF_ASC_NODE": 279.3188,
    "ARG_OF_PERICENTER": 84.0801,
    "MEAN_ANOMALY": 276.0328,
    "EPHEMERIS_TYPE": 0,
    "CLASSIFICATION_TYPE": "U",
    "NORAD_CAT_ID": 64451,
    "ELEMENT_SET_NO": 999,
    "REV_AT_EPOCH": 2255,
    "BSTAR": 0.0014924,
    "MEAN_MOTION_DOT": 0.00044123,
    "MEAN_MOTION_DDOT": 0.0,
    "TLE_LINE1": "1 64451U 25130P   25315.17345692  .00044123  00000+0  14924-2 0  9999",
    "TLE_LINE2": "2 64451  53.1597 279.3188 0001125  84.0801 276.0328 15.30213781 22553",
    "COMMENT": "Grouped by shell and plane from TLE"
  },
  {
    "OBJECT_NAME": "STARLINK-34367",
    "OBJECT_ID": "25130Q",
    "EPOCH": "2025-11-11T06:15:34.828128",
    "MEAN_MOTION": 15.30228157,
    "ECCENTRICITY": 0.0001152,
    "INCLINATION": 53.1584,
    "RA_OF_ASC_NODE": 278.4474,
    "ARG_OF_PERICENTER": 109.8053,
    "MEAN_ANOMALY": 250.3072,
    "EPHEMERIS_TYPE": 0,
    "CLASSIFICATION_TYPE": "U",
    "NORAD_CAT_ID": 64452,
    "ELEMENT_SET_NO": 999,
    "REV_AT_EPOCH": 2256,
    "BSTAR": 0.001618,
    "MEAN_MOTION_DOT": 0.00047913,
    "MEAN_MOTION_DDOT": 0.0,
    "TLE_LINE1": "1 64452U 25130Q   25315.26081977  .00047913  00000+0  16180-2 0  9999",
    "TLE_LINE2": "2 64452  53.1584 278.4474 0001152 109.8053 250.3072 15.30228157 22568",
    "COMMENT": "Grouped by shell and plane from TLE"
  },
  {
    "OBJECT_NAME": "STARLINK-34221",
    "OBJECT_ID": "25130R",
    "EPOCH": "2025-11-11T06:49:00.390720",
    "MEAN_MOTION": 15.30227999,
    "ECCENTRICITY": 0.0001849,
    "INCLINATION": 53.1604,
    "RA_OF_ASC_NODE": 278.5919,
    "ARG_OF_PERICENTER": 94.5121,
    "MEAN_ANOMALY": 265.6091,
    "EPHEMERIS_TYPE": 0,
    "CLASSIFICATION_TYPE": "U",
    "NORAD_CAT_ID": 64453,
    "ELEMENT_SET_NO": 999,
    "REV_AT_EPOCH": 2257,
    "BSTAR": 0.002074,
    "MEAN_MOTION_DOT": 0.00061631,
    "MEAN_MOTION_DDOT": 0.0,
    "TLE_LINE1": "1 64453U 25130R   25315.28403230  .00061631  00000+0  20740-2 0  9992",
    "TLE_LINE2": "2 64453  53.1604 278.5919 0001849  94.5121 265.6091 15.30227999 22570",
    "COMMENT": "Grouped by shell and plane from TLE"
  },
  {
    "OBJECT_NAME": "STARLINK-34295",
    "OBJECT_ID": "25130T",
    "EPOCH": "2025-11-11T07:05:43.540512",
    "MEAN_MOTION": 15.30223245,
    "ECCENTRICITY": 0.0001147,
    "INCLINATION": 53.1613,
    "RA_OF_ASC_NODE": 278.6594,
    "ARG_OF_PERICENTER": 89.3579,
    "MEAN_ANOMALY": 270.7554,
    "EPHEMERIS_TYPE": 0,
    "CLASSIFICATION_TYPE": "U",
    "NORAD_CAT_ID": 64455,
    "ELEMENT_SET_NO": 999,
    "REV_AT_EPOCH": 2257,
    "BSTAR": 0.001067,
    "MEAN_MOTION_DOT": 0.000314,
    "MEAN_MOTION_DDOT": 0.0,
    "TLE_LINE1": "1 64455U 25130T   25315.29564283  .00031400  00000+0  10670-2 0  9993",
    "TLE_LINE2": "2 64455  53.1613 278.6594 0001147  89.3579 270.7554 15.30223245 22573",
    "COMMENT": "Grouped by shell and plane from TLE"
  },
  {
    "OBJECT_NAME": "STARLINK-34430",
    "OBJECT_ID": "25130U",
    "EPOCH": "2025-11-11T04:30:53.330400",
    "MEAN_MOTION": 15.30206433,
    "ECCENTRICITY": 0.0001162,
    "INCLINATION": 53.1595,
    "RA_OF_ASC_NODE": 278.7016,
    "ARG_OF_PERICENTER": 106.7964,
    "MEAN_ANOMALY": 253.3165,
    "EPHEMERIS_TYPE": 0,
    "CLASSIFICATION_TYPE": "U",
    "NORAD_CAT_ID": 64456,
    "ELEMENT_SET_NO": 999,
    "REV_AT_EPOCH": 2256,
    "BSTAR": 0.0013973,
    "MEAN_MOTION_DOT": 0.00041265,
    "MEAN_MOTION_DDOT": 0.0,
    "TLE_LINE1": "1 64456U 25130U   25315.18811725  .00041265  00000+0  13973-2 0  9997",
    "TLE_LINE2": "2 64456  53.1595 278.7016 0001162 106.7964 253.3165 15.30206433 22566",
    "COMMENT": "Grouped by shell and plane from TLE"
  },
  {
    "OBJECT_NAME": "STARLINK-34445",
    "OBJECT_ID": "25130V",
    "EPOCH": "2025-11-11T06:47:29.567040",
    "MEAN_MOTION": 15.30203829,
    "ECCENTRICITY": 0.0001552,
    "INCLINATION": 53.163,
    "RA_OF_ASC_NODE": 278.5798,
    "ARG_OF_PERICENTER": 83.7218,
    "MEAN_ANOMALY": 276.396,
    "EPHEMERIS_TYPE": 0,
    "CLASSIFICATION_TYPE": "U",
    "NORAD_CAT_ID": 64457,
    "ELEMENT_SET_NO": 999,
    "REV_AT_EPOCH": 2257,
    "BSTAR": 0.0009382500000000001,
    "MEAN_MOTION_DOT": 0.00027535,
    "MEAN_MOTION_DDOT": 0.0,
    "TLE_LINE1": "1 64457U 25130V   25315.28298110  .00027535  00000+0  93825-3 0  9995",
    "TLE_LINE2": "2 64457  53.1630 278.5798 0001552  83.7218 276.3960 15.30203829 22576",
    "COMMENT": "Grouped by shell and plane from TLE"
  }
]